IRIDIUM 144             
1 43249U 18030A   25021.40874244  .00000065  00000+0  16316-4 0  9998
2 43249  86.4011 144.3638 0002110 100.4190 259.7244 14.34218275356781
IRIDIUM 149             
1 43250U 18030B   25021.83369669  .00000205  00000+0  66114-4 0  9994
2 43250  86.4011 144.1592 0002191  94.2506 265.8940 14.34218086356860
IRIDIUM 157             
1 43251U 18030C   25021.36434415 -.00000008  00000+0 -98273-5 0  9990
2 43251  86.4015 144.3971 0001866  90.2705 269.8704 14.34217775356779
IRIDIUM 140             
1 43252U 18030D   25021.87175067  .00000640  00000+0  22143-3 0  9993
2 43252  86.4010 144.1990 0002060 100.0520 260.0908 14.34218448356908
IRIDIUM 145             
1 43253U 18030E   25021.57999375  .00000078  00000+0  20847-4 0  9992
2 43253  86.4010 144.2939 0002411  99.1404 261.0064 14.34218114356793
IRIDIUM 146             
1 43254U 18030F   25021.42142826  .00000008  00000+0 -42982-5 0  9997
2 43254  86.4013 144.3743 0002283 103.1389 257.0062 14.34217788356784
IRIDIUM 148             
1 43255U 18030G   25021.38971519  .00000128  00000+0  38821-4 0  9990
2 43255  86.4013 144.4226 0002275  94.9523 265.1933 14.34218240356815
IRIDIUM 142             
1 43256U 18030H   25021.42777184 -.00000052  00000+0 -25658-4 0  9990
2 43256  86.4013 144.3145 0002429  97.4294 262.7177 14.34217206356789
